{"generatedAt":"2026-05-05T08:19:47.084492Z","satellites":[{"name":"BEIDOU-2 IGSO-7","tle1":"1 43539U 18057A   26123.67860174 -.00000046  00000+0  00000+0 0  9997","tle2":"2 43539  55.2660 163.5842 0103558 236.0074 178.8558  1.00264653 28686"},{"name":"TELSTAR 19V","tle1":"1 43562U 18059A   26125.03767875 -.00000272  00000+0  00000+0 0  9992","tle2":"2 43562   0.0229 183.4276 0002246 267.8532  82.2019  1.00270914 28717"},{"name":"TELKOM 4 (MERAH PUTIH)","tle1":"1 43587U 18064A   26125.15530693 -.00000336  00000+0  00000+0 0  9995","tle2":"2 43587   0.0318 104.0279 0002594 334.9938 307.9228  1.00270881 28449"},{"name":"TELSTAR 18V","tle1":"1 43611U 18069A   26125.00621862 -.00000285  00000+0  00000+0 0  9994","tle2":"2 43611   0.0141 274.3770 0002364 131.0985 317.6587  1.00276050 28205"},{"name":"AZERSPACE 2 (IS-38)","tle1":"1 43632U 18074A   26124.84521122  .00000145  00000+0  00000+0 0  9996","tle2":"2 43632   0.0165 272.7088 0001601 133.1564 166.2622  1.00271948 28015"},{"name":"HORIZONS-3E","tle1":"1 43633U 18074B   26124.79845130 -.00000022  00000+0  00000+0 0  9994","tle2":"2 43633   0.0047 224.3369 0000681 117.6533 337.1259  1.00271865 27900"},{"name":"AEHF-4 (USA 288)","tle1":"1 43651U 18079A   26125.16555019 -.00000268  00000+0  00000+0 0  9997","tle2":"2 43651   1.4250   0.2330 0062610 358.5569 216.2634  1.00276563 27864"},{"name":"BEIDOU-3 G1","tle1":"1 43683U 18085A   26124.86791799 -.00000100  00000+0  00000+0 0  9997","tle2":"2 43683   2.9657  98.5201 0007532 336.2903 260.3364  1.00273441 27626"},{"name":"GSAT-29","tle1":"1 43698U 18089A   26125.13235932  .00000092  00000+0  00000+0 0  9999","tle2":"2 43698   0.0529 257.5078 0004096 139.0113 289.2540  1.00275148 27354"},{"name":"ES'HAIL 2","tle1":"1 43700U 18090A   26125.08586302  .00000152  00000+0  00000+0 0  9996","tle2":"2 43700   0.0171 271.8652 0001628 159.7019 208.1216  1.00271367 27247"},{"name":"GEO-KOMPSAT-2A","tle1":"1 43823U 18100A   26124.97544968 -.00000336  00000+0  00000+0 0  9998","tle2":"2 43823   0.0615  81.8839 0002304 350.1859 270.2245  1.00272045 27193"},{"name":"GSAT-11","tle1":"1 43824U 18100B   26125.13608601 -.00000069  00000+0  00000+0 0  9996","tle2":"2 43824   0.0627 263.3349 0007559 171.2168 271.4640  1.00271986 27041"},{"name":"GSAT-7A","tle1":"1 43864U 18105A   26125.13391933  .00000034  00000+0  00000+0 0  9993","tle2":"2 43864   0.0676  76.1460 0002494 332.5677 285.3171  1.00274861 27018"},{"name":"COSMOS 2533","tle1":"1 43867U 18107A   26124.63620919 -.00000031  00000+0  00000+0 0  9999","tle2":"2 43867   0.0090  97.2284 0000343 342.1992  82.1430  1.00273989 27018"},{"name":"TJS-3","tle1":"1 43874U 18110A   26124.74891904 -.00000112  00000+0  00000+0 0  9997","tle2":"2 43874   2.4334  80.9893 0001631  25.0382 173.8892  1.00759805 26980"},{"name":"ZHONGXING-2D","tle1":"1 43920U 19001A   26125.00465862 -.00000329  00000+0  00000+0 0  9999","tle2":"2 43920   0.0364  16.5147 0000835 354.3628 343.7082  1.00271637 53646"},{"name":"HELLAS-SAT 4 & SGS-1","tle1":"1 44034U 19007A   26125.12923931  .00000161  00000+0  00000+0 0  9994","tle2":"2 44034   0.0694 121.3735 0004181  12.6321 174.5383  1.00270135 26937"},{"name":"GSAT-31","tle1":"1 44035U 19007B   26125.13097264  .00000133  00000+0  00000+0 0  9996","tle2":"2 44035   0.0134 255.7194 0002582 101.6584 320.6787  1.00274708 26539"},{"name":"NUSANTARA SATU","tle1":"1 44048U 19009A   26125.19072355 -.00000226  00000+0  00000+0 0  9996","tle2":"2 44048   0.0408 121.7697 0003564 337.8646 338.1241  1.00273477 26339"},{"name":"ZHONGXING-6C","tle1":"1 44067U 19012A   26125.00465862 -.00000327  00000+0  00000+0 0  9992","tle2":"2 44067   0.0713  82.4866 0012166 321.5775 310.9175  1.00268772 26304"},{"name":"WGS 10 (USA 291)","tle1":"1 44071U 19014A   26125.13339933  .00000055  00000+0  00000+0 0  9999","tle2":"2 44071   0.0185 306.2128 0000549  87.8611 297.2527  1.00272553 26189"},{"name":"TIANLIAN 2-01","tle1":"1 44076U 19017A   26125.06541220 -.00000099  00000+0  00000+0 0  9992","tle2":"2 44076   0.4285  82.8677 0001345 292.8904 307.7607  1.00272419 26214"},{"name":"ARABSAT-6A","tle1":"1 44186U 19021A   26125.08586302  .00000161  00000+0  00000+0 0  9990","tle2":"2 44186   0.0555   6.4183 0002762  64.2197 213.6806  1.00271181 25721"},{"name":"BEIDOU-3 IGSO-1","tle1":"1 44204U 19023A   26120.68081943 -.00000239  00000+0  00000+0 0  9992","tle2":"2 44204  58.6323  38.1392 0024402 235.3065 306.5734  1.00254513  6730"},{"name":"BEIDOU-2 G8","tle1":"1 44231U 19027A   26125.19072356 -.00000238  00000+0  00000+0 0  9994","tle2":"2 44231   1.5501  74.4102 0011286 281.0298  80.7323  1.00276263 25652"},{"name":"YAMAL 601","tle1":"1 44307U 19031A   26125.13114598  .00000128  00000+0  00000+0 0  9999","tle2":"2 44307   0.0096 302.4068 0002839 104.1805 272.6392  1.00271980 25487"},{"name":"AT&T T-16","tle1":"1 44333U 19034A   26125.10146566 -.00000107  00000+0  00000+0 0  9996","tle2":"2 44333   0.0087  22.6414 0000652 170.0730 325.9428  1.00269778 25206"},{"name":"EUTELSAT 7C","tle1":"1 44334U 19034B   26125.12282595  .00000056  00000+0  00000+0 0  9994","tle2":"2 44334   0.0756 180.9055 0003377 212.1086 241.2026  1.00271205  6401"},{"name":"BEIDOU-3 IGSO-2","tle1":"1 44337U 19035A   26125.00223196 -.00000073  00000+0  00000+0 0  9997","tle2":"2 44337  55.2377 159.2418 0039429 215.2872 328.9066  1.00280508 25236"},{"name":"COSMOS 2539","tle1":"1 44457U 19048A   26124.83866479  .00000089  00000+0  00000+0 0  9997","tle2":"2 44457   0.0032  99.8012 0000752  72.4719   4.3775  1.00268587 24799"},{"name":"EDRS-C","tle1":"1 44475U 19049A   26125.19072355 -.00000254  00000+0  00000+0 0  9995","tle2":"2 44475   0.0491  98.5178 0001416 310.8666  24.8486  1.00270561 24774"},{"name":"INTELSAT 39 (IS-39)","tle1":"1 44476U 19049B   26124.91986683  .00000041  00000+0  00000+0 0  9996","tle2":"2 44476   0.0154 279.2257 0000578 290.8571  45.8220  1.00271530 24694"},{"name":"AMOS-17","tle1":"1 44479U 19050A   26125.12481927  .00000118  00000+0  00000+0 0  9991","tle2":"2 44479   0.0135 330.6442 0001674  94.5154 219.7764  1.00273598 24756"},{"name":"AEHF-5 (USA 292)","tle1":"1 44481U 19051A   26125.16086457 -.00000251  00000+0  00000+0 0  9997","tle2":"2 44481   1.4954 332.9736 0068952   2.7408  38.3228  1.00270583 24839"},{"name":"EUTELSAT 5 WEST B","tle1":"1 44624U 19067A   26123.69447341 -.00000034  00000+0  00000+0 0  9991","tle2":"2 44624   0.0744  23.8561 0003405  23.2219  59.5297  1.00272800 23993"},{"name":"TJS-4","tle1":"1 44637U 19070A   26124.92411351 -.00000160  00000+0  00000+0 0  9998","tle2":"2 44637   0.0969  80.9903 0003546 358.6718 199.2756  1.00269068 24103"},{"name":"BEIDOU-3 IGSO-3","tle1":"1 44709U 19073A   26120.85038409 -.00000212  00000+0  00000+0 0  9996","tle2":"2 44709  54.8842 281.4069 0042404 188.8195 170.9972  1.00251230 23982"},{"name":"TIBA-1","tle1":"1 44800U 19080A   26125.12845931  .00000164  00000+0  00000+0 0  9992","tle2":"2 44800   0.0576   6.8250 0002146  44.1071 253.8095  1.00272099 23622"},{"name":"INMARSAT GX5","tle1":"1 44801U 19080B   26125.12369262  .00000083  00000+0  00000+0 0  9991","tle2":"2 44801   0.0409 344.4586 0002157  57.4751 236.6074  1.00274689  6359"},{"name":"JCSAT-18 (KACIFIC 1)","tle1":"1 44868U 19091A   26125.19072355 -.00000193  00000+0  00000+0 0  9990","tle2":"2 44868   0.0149 313.5199 0000225  97.0221  31.1852  1.00270260 23572"},{"name":"ELEKTRO-L 3","tle1":"1 44903U 19095A   26125.13651934 -.00000088  00000+0  00000+0 0  9997","tle2":"2 44903   0.1462  78.1436 0001335 323.6097 306.3614  1.00272204 23271"},{"name":"SHIJIAN-20 (SJ-20)","tle1":"1 44910U 19097A   26125.11433556  .00000145  00000+0  00000+0 0  9996","tle2":"2 44910   4.8099  75.5777 0011669  49.8752 183.4492  1.00270054 23269"},{"name":"TJS-5","tle1":"1 44978U 20002A   26125.15530694 -.00000334  00000+0  00000+0 0  9994","tle2":"2 44978   0.1186 271.3355 0006639 128.1792 346.9415  1.00270492 23271"},{"name":"GSAT-30","tle1":"1 45026U 20005A   26125.13790601 -.00000157  00000+0  00000+0 0  9999","tle2":"2 45026   0.0563  87.0509 0003182 345.7793 282.8342  1.00272693 23075"},{"name":"EUTELSAT KONNECT","tle1":"1 45027U 20005B   26125.12291262  .00000058  00000+0  00000+0 0  9997","tle2":"2 45027   0.0696  91.5613 0001512 194.9511 347.9591  1.00271758 23908"},{"name":"JCSAT-17","tle1":"1 45245U 20013A   26125.00578529 -.00000312  00000+0  00000+0 0  9993","tle2":"2 45245   5.3937 356.4490 0003990  39.5500 324.9738  1.00271237 22804"},{"name":"GEO-KOMPSAT-2B","tle1":"1 45246U 20013B   26124.97544968 -.00000336  00000+0  00000+0 0  9995","tle2":"2 45246   0.0148 343.6238 0000791   3.6781 354.9893  1.00272049 22849"},{"name":"BEIDOU-3 G2","tle1":"1 45344U 20017A   26125.13729934 -.00000132  00000+0  00000+0 0  9999","tle2":"2 45344   2.7786  46.6650 0002942   2.0797 303.7410  1.00271574 22820"},{"name":"AEHF-6 (USA 298)","tle1":"1 45465U 20022B   26125.18115478 -.00000292  00000+0  00000+0 0  9993","tle2":"2 45465   2.6453 300.6094 0045659  18.2534 107.1318  1.00268377 22582"},{"name":"BEIDOU-3 G3","tle1":"1 45807U 20040A   26125.07208556 -.00000345  00000+0  00000+0 0  9990","tle2":"2 45807   2.3424  67.3287 0004134 339.2316 312.8001  1.00266928 21634"},{"name":"APSTAR-6D","tle1":"1 45863U 20045A   26124.64891015  .00000000  00000+0  00000+0 0  9994","tle2":"2 45863   0.0149  99.3803 0002076   1.0686 129.6982  1.00263119 21429"},{"name":"KOREASAT 116","tle1":"1 45920U 20048A   26125.14419698 -.00000354  00000+0  00000+0 0  9993","tle2":"2 45920   0.0258 277.3845 0001184 161.5701 312.1944  1.00270059 21201"},{"name":"EXPRESS 103","tle1":"1 45985U 20053A   26125.16086458 -.00000273  00000+0  00000+0 0  9996","tle2":"2 45985   0.0144 267.9253 0000359  97.4614  12.0716  1.00273251 21218"},{"name":"EXPRESS 80","tle1":"1 45986U 20053B   26124.16097147 -.00000128  00000+0  00000+0 0  9992","tle2":"2 45986   0.0159 271.7261 0001565 277.0131 171.2644  1.00273253 21194"}]}